CCSDS_OMM_VERS = 2.0
CREATION_DATE  = 
ORIGINATOR     = 

OBJECT_NAME    = STARLINK-34882
OBJECT_ID      = 2025-244X
CENTER_NAME    = EARTH
REF_FRAME      = TEME
TIME_SYSTEM    = UTC
MEAN_ELEMENT_THEORY = SGP/SGP4

EPOCH          = 2025-11-07T06:00:00.999648
MEAN_MOTION    = 15.83268883
ECCENTRICITY   = .0000969
INCLINATION    = 53.1533
RA_OF_ASC_NODE = 85.3752
ARG_OF_PERICENTER = 74.5461
MEAN_ANOMALY   = 114.1326

EPHEMERIS_TYPE = 0
CLASSIFICATION_TYPE = U
NORAD_CAT_ID   = 66227
ELEMENT_SET_NO = 999
REV_AT_EPOCH   = 283
BSTAR          = -.7163064E-2
MEAN_MOTION_DOT = -.1381044E-1
MEAN_MOTION_DDOT = 0

CCSDS_OMM_VERS = 2.0
CREATION_DATE  = 
ORIGINATOR     = 

OBJECT_NAME    = STARLINK-35731
OBJECT_ID      = 2025-244Y
CENTER_NAME    = EARTH
REF_FRAME      = TEME
TIME_SYSTEM    = UTC
MEAN_ELEMENT_THEORY = SGP/SGP4

EPOCH          = 2025-11-07T06:00:00.999648
MEAN_MOTION    = 15.83281394
ECCENTRICITY   = .00009431
INCLINATION    = 53.1532
RA_OF_ASC_NODE = 85.3713
ARG_OF_PERICENTER = 73.9876
MEAN_ANOMALY   = 116.7044

EPHEMERIS_TYPE = 0
CLASSIFICATION_TYPE = U
NORAD_CAT_ID   = 66228
ELEMENT_SET_NO = 999
REV_AT_EPOCH   = 251
BSTAR          = -.7165023E-2
MEAN_MOTION_DOT = -.1382074E-1
MEAN_MOTION_DDOT = 0

CCSDS_OMM_VERS = 2.0
CREATION_DATE  = 
ORIGINATOR     = 

OBJECT_NAME    = STARLINK-35758
OBJECT_ID      = 2025-244Z
CENTER_NAME    = EARTH
REF_FRAME      = TEME
TIME_SYSTEM    = UTC
MEAN_ELEMENT_THEORY = SGP/SGP4

EPOCH          = 2025-11-07T06:00:00.999648
MEAN_MOTION    = 15.83249263
ECCENTRICITY   = .00009885
INCLINATION    = 53.1532
RA_OF_ASC_NODE = 85.3665
ARG_OF_PERICENTER = 73.6879
MEAN_ANOMALY   = 119.3187

EPHEMERIS_TYPE = 0
CLASSIFICATION_TYPE = U
NORAD_CAT_ID   = 66229
ELEMENT_SET_NO = 999
REV_AT_EPOCH   = 251
BSTAR          = -.70616612E-2
MEAN_MOTION_DOT = -.1362901E-1
MEAN_MOTION_DDOT = 0

CCSDS_OMM_VERS = 2.0
CREATION_DATE  = 
ORIGINATOR     = 

OBJECT_NAME    = STARLINK-35736
OBJECT_ID      = 2025-244AA
CENTER_NAME    = EARTH
REF_FRAME      = TEME
TIME_SYSTEM    = UTC
MEAN_ELEMENT_THEORY = SGP/SGP4

EPOCH          = 2025-11-07T06:00:00.999648
MEAN_MOTION    = 15.83270965
ECCENTRICITY   = .00009312
INCLINATION    = 53.1532
RA_OF_ASC_NODE = 85.3614
ARG_OF_PERICENTER = 73.8282
MEAN_ANOMALY   = 121.5791

EPHEMERIS_TYPE = 0
CLASSIFICATION_TYPE = U
NORAD_CAT_ID   = 66230
ELEMENT_SET_NO = 999
REV_AT_EPOCH   = 251
BSTAR          = -.72538882E-2
MEAN_MOTION_DOT = -.142411E-1
MEAN_MOTION_DDOT = 0

CCSDS_OMM_VERS = 2.0
CREATION_DATE  = 
ORIGINATOR     = 

OBJECT_NAME    = STARLINK-35735
OBJECT_ID      = 2025-244AB
CENTER_NAME    = EARTH
REF_FRAME      = TEME
TIME_SYSTEM    = UTC
MEAN_ELEMENT_THEORY = SGP/SGP4

EPOCH          = 2025-11-07T06:00:00.999648
MEAN_MOTION    = 15.83239973
ECCENTRICITY   = .0000782
INCLINATION    = 53.1534
RA_OF_ASC_NODE = 85.3562
ARG_OF_PERICENTER = 72.8835
MEAN_ANOMALY   = 125.0355

EPHEMERIS_TYPE = 0
CLASSIFICATION_TYPE = U
NORAD_CAT_ID   = 66231
ELEMENT_SET_NO = 999
REV_AT_EPOCH   = 251
BSTAR          = -.72089751E-2
MEAN_MOTION_DOT = -.1414313E-1
MEAN_MOTION_DDOT = 0

CCSDS_OMM_VERS = 2.0
CREATION_DATE  = 
ORIGINATOR     = 

OBJECT_NAME    = STARLINK-35753
OBJECT_ID      = 2025-244AC
CENTER_NAME    = EARTH
REF_FRAME      = TEME
TIME_SYSTEM    = UTC
MEAN_ELEMENT_THEORY = SGP/SGP4

EPOCH          = 2025-11-07T06:00:00.999648
MEAN_MOTION    = 15.83275060
ECCENTRICITY   = .00009639
INCLINATION    = 53.1534
RA_OF_ASC_NODE = 85.3525
ARG_OF_PERICENTER = 71.7776
MEAN_ANOMALY   = 128.1148

EPHEMERIS_TYPE = 0
CLASSIFICATION_TYPE = U
NORAD_CAT_ID   = 66232
ELEMENT_SET_NO = 999
REV_AT_EPOCH   = 251
BSTAR          = -.73300003E-2
MEAN_MOTION_DOT = -.1437645E-1
MEAN_MOTION_DDOT = 0

CCSDS_OMM_VERS = 2.0
CREATION_DATE  = 
ORIGINATOR     = 

OBJECT_NAME    = STARLINK-35626
OBJECT_ID      = 2025-244AD
CENTER_NAME    = EARTH
REF_FRAME      = TEME
TIME_SYSTEM    = UTC
MEAN_ELEMENT_THEORY = SGP/SGP4

EPOCH          = 2025-11-07T06:00:00.999648
MEAN_MOTION    = 15.83268182
ECCENTRICITY   = .00008784
INCLINATION    = 53.1532
RA_OF_ASC_NODE = 85.3471
ARG_OF_PERICENTER = 84.0875
MEAN_ANOMALY   = 118.2671

EPHEMERIS_TYPE = 0
CLASSIFICATION_TYPE = U
NORAD_CAT_ID   = 66233
ELEMENT_SET_NO = 999
REV_AT_EPOCH   = 267
BSTAR          = -.74108812E-2
MEAN_MOTION_DOT = -.1451229E-1
MEAN_MOTION_DDOT = 0

CCSDS_OMM_VERS = 2.0
CREATION_DATE  = 
ORIGINATOR     = 

OBJECT_NAME    = STARLINK-35537
OBJECT_ID      = 2025-245A
CENTER_NAME    = EARTH
REF_FRAME      = TEME
TIME_SYSTEM    = UTC
MEAN_ELEMENT_THEORY = SGP/SGP4

EPOCH          = 2025-11-06T14:00:01.000224
MEAN_MOTION    = 15.91893018
ECCENTRICITY   = .0000579
INCLINATION    = 53.1535
RA_OF_ASC_NODE = 143.6990
ARG_OF_PERICENTER = 79.2479
MEAN_ANOMALY   = 39.6840

EPHEMERIS_TYPE = 0
CLASSIFICATION_TYPE = U
NORAD_CAT_ID   = 66234
ELEMENT_SET_NO = 999
REV_AT_EPOCH   = 229
BSTAR          = 0
MEAN_MOTION_DOT = -.3503E-4
MEAN_MOTION_DDOT = .11075E-4

CCSDS_OMM_VERS = 2.0
CREATION_DATE  = 
ORIGINATOR     = 

OBJECT_NAME    = STARLINK-35541
OBJECT_ID      = 2025-245B
CENTER_NAME    = EARTH
REF_FRAME      = TEME
TIME_SYSTEM    = UTC
MEAN_ELEMENT_THEORY = SGP/SGP4

EPOCH          = 2025-11-06T14:00:01.000224
MEAN_MOTION    = 15.91893018
ECCENTRICITY   = .0000579
INCLINATION    = 53.1535
RA_OF_ASC_NODE = 143.6990
ARG_OF_PERICENTER = 79.2479
MEAN_ANOMALY   = 39.6840

EPHEMERIS_TYPE = 0
CLASSIFICATION_TYPE = U
NORAD_CAT_ID   = 66235
ELEMENT_SET_NO = 999
REV_AT_EPOCH   = 229
BSTAR          = 0
MEAN_MOTION_DOT = -.3503E-4
MEAN_MOTION_DDOT = .11075E-4

CCSDS_OMM_VERS = 2.0
CREATION_DATE  = 
ORIGINATOR     = 

OBJECT_NAME    = STARLINK-35454
OBJECT_ID      = 2025-245C
CENTER_NAME    = EARTH
REF_FRAME      = TEME
TIME_SYSTEM    = UTC
MEAN_ELEMENT_THEORY = SGP/SGP4

EPOCH          = 2025-11-06T14:00:01.000224
MEAN_MOTION    = 15.91893018
ECCENTRICITY   = .0000579
INCLINATION    = 53.1535
RA_OF_ASC_NODE = 143.6990
ARG_OF_PERICENTER = 79.2479
MEAN_ANOMALY   = 39.6840

EPHEMERIS_TYPE = 0
CLASSIFICATION_TYPE = U
NORAD_CAT_ID   = 66236
ELEMENT_SET_NO = 999
REV_AT_EPOCH   = 229
BSTAR          = 0
MEAN_MOTION_DOT = -.3503E-4
MEAN_MOTION_DDOT = .11075E-4

CCSDS_OMM_VERS = 2.0
CREATION_DATE  = 
ORIGINATOR     = 

OBJECT_NAME    = STARLINK-35557
OBJECT_ID      = 2025-245D
CENTER_NAME    = EARTH
REF_FRAME      = TEME
TIME_SYSTEM    = UTC
MEAN_ELEMENT_THEORY = SGP/SGP4

EPOCH          = 2025-11-06T14:00:01.000224
MEAN_MOTION    = 15.91893018
ECCENTRICITY   = .0000579
INCLINATION    = 53.1535
RA_OF_ASC_NODE = 143.6990
ARG_OF_PERICENTER = 79.2479
MEAN_ANOMALY   = 39.6840

EPHEMERIS_TYPE = 0
CLASSIFICATION_TYPE = U
NORAD_CAT_ID   = 66237
ELEMENT_SET_NO = 999
REV_AT_EPOCH   = 229
BSTAR          = 0
MEAN_MOTION_DOT = -.3503E-4
MEAN_MOTION_DDOT = .11075E-4

CCSDS_OMM_VERS = 2.0
CREATION_DATE  = 
ORIGINATOR     = 

OBJECT_NAME    = STARLINK-35556
OBJECT_ID      = 2025-245E
CENTER_NAME    = EARTH
REF_FRAME      = TEME
TIME_SYSTEM    = UTC
MEAN_ELEMENT_THEORY = SGP/SGP4

EPOCH          = 2025-11-06T14:00:01.000224
MEAN_MOTION    = 15.91893018
ECCENTRICITY   = .0000579
INCLINATION    = 53.1535
RA_OF_ASC_NODE = 143.6990
ARG_OF_PERICENTER = 79.2479
MEAN_ANOMALY   = 39.6840

EPHEMERIS_TYPE = 0
CLASSIFICATION_TYPE = U
NORAD_CAT_ID   = 66238
ELEMENT_SET_NO = 999
REV_AT_EPOCH   = 229
BSTAR          = 0
MEAN_MOTION_DOT = -.3503E-4
MEAN_MOTION_DDOT = .11075E-4

CCSDS_OMM_VERS = 2.0
CREATION_DATE  = 
ORIGINATOR     = 

OBJECT_NAME    = STARLINK-35554
OBJECT_ID      = 2025-245F
CENTER_NAME    = EARTH
REF_FRAME      = TEME
TIME_SYSTEM    = UTC
MEAN_ELEMENT_THEORY = SGP/SGP4

EPOCH          = 2025-11-06T14:00:01.000224
MEAN_MOTION    = 15.91893018
ECCENTRICITY   = .0000579
INCLINATION    = 53.1535
RA_OF_ASC_NODE = 143.6990
ARG_OF_PERICENTER = 79.2479
MEAN_ANOMALY   = 39.6840

EPHEMERIS_TYPE = 0
CLASSIFICATION_TYPE = U
NORAD_CAT_ID   = 66239
ELEMENT_SET_NO = 999
REV_AT_EPOCH   = 229
BSTAR          = 0
MEAN_MOTION_DOT = -.3503E-4
MEAN_MOTION_DDOT = .11075E-4

CCSDS_OMM_VERS = 2.0
CREATION_DATE  = 
ORIGINATOR     = 

OBJECT_NAME    = STARLINK-35546
OBJECT_ID      = 2025-245G
CENTER_NAME    = EARTH
REF_FRAME      = TEME
TIME_SYSTEM    = UTC
MEAN_ELEMENT_THEORY = SGP/SGP4

EPOCH          = 2025-11-06T14:00:01.000224
MEAN_MOTION    = 15.91893018
ECCENTRICITY   = .0000579
INCLINATION    = 53.1535
RA_OF_ASC_NODE = 143.6990
ARG_OF_PERICENTER = 79.2479
MEAN_ANOMALY   = 39.6840

EPHEMERIS_TYPE = 0
CLASSIFICATION_TYPE = U
NORAD_CAT_ID   = 66240
ELEMENT_SET_NO = 999
REV_AT_EPOCH   = 229
BSTAR          = 0
MEAN_MOTION_DOT = -.3503E-4
MEAN_MOTION_DDOT = .11075E-4

CCSDS_OMM_VERS = 2.0
CREATION_DATE  = 
ORIGINATOR     = 

OBJECT_NAME    = STARLINK-35497
OBJECT_ID      = 2025-245H
CENTER_NAME    = EARTH
REF_FRAME      = TEME
TIME_SYSTEM    = UTC
MEAN_ELEMENT_THEORY = SGP/SGP4

EPOCH          = 2025-11-06T14:00:01.000224
MEAN_MOTION    = 15.91893018
ECCENTRICITY   = .0000579
INCLINATION    = 53.1535
RA_OF_ASC_NODE = 143.6990
ARG_OF_PERICENTER = 79.2479
MEAN_ANOMALY   = 39.6840

EPHEMERIS_TYPE = 0
CLASSIFICATION_TYPE = U
NORAD_CAT_ID   = 66241
ELEMENT_SET_NO = 999
REV_AT_EPOCH   = 229
BSTAR          = 0
MEAN_MOTION_DOT = -.3503E-4
MEAN_MOTION_DDOT = .11075E-4

